BEIDOU-2 IGSO-1 (C06)   
1 36828U 10036A   24107.09773064 -.00000114  00000+0  00000+0 0  9992
2 36828  54.2443 170.1322 0040088 199.8970 333.3797  1.00245293 50264
BEIDOU-2 G4 (C04)       
1 37210U 10057A   24133.56299542 -.00000115  00000+0  00000+0 0  9997
2 37210   1.7620  68.2814 0003306 192.5568 332.7348  1.00272366 49615
BEIDOU-2 IGSO-2 (C07)   
1 37256U 10068A   24133.83938299 -.00000211  00000+0  00000+0 0  9995
2 37256  48.9456 281.2470 0034144 208.2754 151.0332  1.00261436 49112
BEIDOU-2 IGSO-3 (C08)   
1 37384U 11013A   24131.75135207 -.00000211  00000+0  00000+0 0  9995
2 37384  61.3015  47.4712 0025579 177.8795  22.5939  1.00267916 47979
BEIDOU-2 IGSO-4 (C09)   
1 37763U 11038A   24133.07757844 -.00000039  00000+0  00000+0 0  9995
2 37763  54.5527 172.4940 0124663 228.7149 312.8896  1.00266858 46966
BEIDOU-2 IGSO-5 (C10)   
1 37948U 11073A   24132.72137522 -.00000157  00000+0  00000+0 0  9996
2 37948  49.0790 280.9444 0096336 218.7806  83.5359  1.00259798 45443
BEIDOU-2 G5 (C05)       
1 38091U 12008A   24133.00674639  .00000053  00000+0  00000+0 0  9996
2 38091   1.9899  70.5650 0007992 266.8840 313.8961  1.00272241 44685
BEIDOU-2 M3 (C11)       
1 38250U 12018A   24132.95678596 -.00000089  00000+0  00000+0 0  9993
2 38250  56.3622 330.5457 0020602 265.2703  94.5056  1.86231328 82021
BEIDOU-2 M4 (C12)       
1 38251U 12018B   24132.88713842 -.00000089  00000+0  00000+0 0  9990
2 38251  56.2699 329.8224 0011523 269.6571  90.2212  1.86232076 81679
BEIDOU-2 M6 (C14)       
1 38775U 12050B   24133.13350542 -.00000015  00000+0  00000+0 0  9999
2 38775  55.8866  88.3673 0014693 334.3539  25.5339  1.86231161 79044
BEIDOU-2 G6 (C02)       
1 38953U 12059A   24133.84494014 -.00000179  00000+0  00000+0 0  9998
2 38953   2.4717  80.7164 0010531 311.7379 226.8521  1.00269978 42372
BEIDOU-3S IGSO-1S (C31) 
1 40549U 15019A   24133.85591490 -.00000166  00000+0  00000+0 0  9994
2 40549  50.6389 304.6025 0037314 191.1646 136.4605  1.00257332 33397
BEIDOU-3S M2S (C58)     
1 40748U 15037A   24132.01380310 -.00000090  00000+0  00000+0 0  9995
2 40748  55.5032 328.2955 0007775 255.8606 104.0612  1.86233139 59832
BEIDOU-3S M1S (C57)     
1 40749U 15037B   24132.82109525 -.00000089  00000+0  00000+0 0  9990
2 40749  55.5063 328.2551 0004674   2.9016 357.1092  1.86233022 59856
BEIDOU-3S IGSO-2S (C56) 
1 40938U 15053A   24132.82549531 -.00000154  00000+0  00000+0 0  9996
2 40938  50.4163 267.8259 0051569 188.3301 167.5907  1.00270788 31668
BEIDOU-2 IGSO-6 (C13)   
1 41434U 16021A   24132.79274559 -.00000182  00000+0  00000+0 0  9996
2 41434  59.1274  45.7152 0048074 224.4255 341.3468  1.00277965 29790
BEIDOU-2 G7 (C03)       
1 41586U 16037A   24133.85674387 -.00000358  00000+0  00000+0 0  9997
2 41586   1.8239  69.2150 0008576 325.7236 255.1494  1.00269940 29110
BEIDOU-3 M1 (C19)       
1 43001U 17069A   24131.28871800 -.00000026  00000+0  00000+0 0  9993
2 43001  56.0358  88.5197 0012154 305.1076  54.7327  1.86231413 44308
BEIDOU-3 M2 (C20)       
1 43002U 17069B   24131.76282319 -.00000024  00000+0  00000+0 0  9996
2 43002  56.0354  88.5406 0010029 324.4790  35.4097  1.86230965 44305
BEIDOU-3 M7 (C27)       
1 43107U 18003A   24132.58624102 -.00000091  00000+0  00000+0 0  9996
2 43107  54.9608 328.8830 0005135  68.9099 291.1538  1.86232507 43073
BEIDOU-3 M8 (C28)       
1 43108U 18003B   24131.98941561 -.00000092  00000+0  00000+0 0  9992
2 43108  54.9543 328.8893 0002372 268.3034  91.6783  1.86230946 43076
BEIDOU-3 M4 (C22)       
1 43207U 18018A   24130.28287913 -.00000028  00000+0  00000+0 0  9993
2 43207  55.9940  88.6438 0007399 344.5983  15.3317  1.86231296 42421
BEIDOU-3 M3 (C21)       
1 43208U 18018B   24133.03422685 -.00000015  00000+0  00000+0 0  9993
2 43208  55.9960  88.5565 0009924 316.1574  43.7242  1.86231378 42479
BEIDOU-3 M9 (C29)       
1 43245U 18029A   24133.25583691 -.00000087  00000+0  00000+0 0  9994
2 43245  54.8449 326.5706 0000620  63.0755 296.9363  1.86232767 41631
BEIDOU-3 M10 (C30)      
1 43246U 18029B   24132.11166514 -.00000090  00000+0  00000+0 0  9994
2 43246  54.8432 326.6386 0004394  20.1718 339.8511  1.86232857 41591
BEIDOU-2 IGSO-7 (C16)   
1 43539U 18057A   24132.57313582 -.00000085  00000+0  00000+0 0  9993
2 43539  55.1361 169.6873 0074813 233.2761 145.7897  1.00264295 21456
BEIDOU-3 M5 (C23)       
1 43581U 18062A   24132.87113218  .00000001  00000+0  00000+0 0  9990
2 43581  54.1355 208.3712 0004093 273.6242  86.3968  1.86228774 39367
BEIDOU-3 M6 (C24)       
1 43582U 18062B   24133.27411569 -.00000004  00000+0  00000+0 0  9990
2 43582  54.1351 208.3470 0004118  12.8948 347.1825  1.86229530 39371
BEIDOU-3 M12 (C26)      
1 43602U 18067A   24132.67090642  .00000004  00000+0  00000+0 0  9995
2 43602  54.2251 207.0457 0006761  22.0607 338.0381  1.86231758 38848
BEIDOU-3 M11 (C25)      
1 43603U 18067B   24133.34177555 -.00000004  00000+0  00000+0 0  9991
2 43603  54.2222 206.9882 0003630   8.1409 351.9330  1.86231620 38884
BEIDOU-3 M13 (C32)      
1 43622U 18072A   24131.69149043 -.00000025  00000+0  00000+0 0  9998
2 43622  55.9656  88.1297 0008598 303.9768  55.8970  1.86231446 38365
BEIDOU-3 M14 (C33)      
1 43623U 18072B   24132.09389826 -.00000023  00000+0  00000+0 0  9997
2 43623  55.9677  88.1094 0006562 325.4635  34.4507  1.86231500 38365
BEIDOU-3 M16 (C35)      
1 43647U 18078A   24132.25687977 -.00000090  00000+0  00000+0 0  9999
2 43647  54.7424 326.7074 0007782  22.4781 337.5616  1.86232287 37874
BEIDOU-3 M15 (C34)      
1 43648U 18078B   24132.92301039 -.00000089  00000+0  00000+0 0  9994
2 43648  54.7379 326.6873 0004903  35.5390 324.4992  1.86232311 37907
BEIDOU-3 G1 (C59)       
1 43683U 18085A   24133.49146472 -.00000281  00000+0  00000+0 0  9996
2 43683   2.1053 110.9439 0003607 342.7385  93.9783  1.00275334 20389
BEIDOU-3 M17 (C36)      
1 43706U 18093A   24131.99893291  .00000012  00000+0  00000+0 0  9993
2 43706  54.2186 208.3365 0009048 279.4701  80.4971  1.86228354 37251
BEIDOU-3 M18 (C37)      
1 43707U 18093B   24131.86456825  .00000014  00000+0  00000+0 0  9990
2 43707  54.2192 208.3329 0007059 307.9765  52.0294  1.86229803 37248
BEIDOU-3 IGSO-1 (C38)   
1 44204U 19023A   24132.72770045 -.00000238  00000+0  00000+0 0  9995
2 44204  57.5919  45.6044 0018804 213.0036 351.4399  1.00260306 18675
BEIDOU-2 G8 (C01)       
1 44231U 19027A   24131.69910439 -.00000253  00000+0  00000+0 0  9994
2 44231   1.8578  73.6701 0002631 162.4650  28.9272  1.00266899 18386
BEIDOU-3 IGSO-2 (C39)   
1 44337U 19035A   24132.47925418 -.00000087  00000+0  00000+0 0  9995
2 44337  55.1716 165.5893 0033135 209.2049 144.6532  1.00252681 17970
BEIDOU-3 M24 (C46)      
1 44542U 19061A   24131.93440554  .00000013  00000+0  00000+0 0  9993
2 44542  54.4459 208.6180 0007250 350.0018  10.0530  1.86231156 31509
BEIDOU-3 M23 (C45)      
1 44543U 19061B   24131.54542296  .00000018  00000+0  00000+0 0  9992
2 44543  54.4447 208.5999 0004503 330.6465  40.8279  1.86231560 31502
BEIDOU-3 IGSO-3 (C40)   
1 44709U 19073A   24132.83450562 -.00000199  00000+0  00000+0 0  9997
2 44709  56.1135 289.1075 0037700 180.2310 179.6781  1.00260590 16752
BEIDOU-3 M22 (C44)      
1 44793U 19078A   24128.02153484 -.00000079  00000+0  00000+0 0  9991
2 44793  54.5930 326.7910 0006879  29.8772 330.1797  1.86232043 30280
BEIDOU-3 M21 (C43)      
1 44794U 19078B   24131.91005153 -.00000091  00000+0  00000+0 0  9997
2 44794  54.5639 326.6328 0004640  28.6797 331.3514  1.86232635 30363
BEIDOU-3 M19 (C41)      
1 44864U 19090A   24133.50095519 -.00000012  00000+0  00000+0 0  9994
2 44864  55.9014  88.2419 0019218 284.6410 254.9966  1.86231783 29977
BEIDOU-3 M20 (C42)      
1 44865U 19090B   24133.35685994 -.00000013  00000+0  00000+0 0  9991
2 44865  55.9031  88.2799 0017222 297.1056 235.6665  1.86231700 29955
BEIDOU-3 G2 (C60)       
1 45344U 20017A   24133.15257973 -.00000146  00000+0  00000+0 0  9992
2 45344   2.2748  28.2168 0000479   3.8868 333.2605  1.00272342 15576
BEIDOU-3 G3 (C61)       
1 45807U 20040A   24133.85674387 -.00000358  00000+0  00000+0 0  9996
2 45807   0.7226  37.5328 0005475 290.5613 321.9464  1.00276455 14406
BEIDOU-3 G4             
1 56564U 23066A   24133.48591036 -.00000116  00000+0  00000+0 0  9999
2 56564   2.2112 288.2285 0004504 193.2412  84.2752  1.00271871  3712
BEIDOU-3 M25            
1 58654U 23207A   24133.06659317 -.00000017  00000+0  00000+0 0  9999
2 58654  55.0834  88.2982 0004459 299.1344  60.7816  1.86232328  2573
BEIDOU-3 M26            
1 58655U 23207B   24130.18072268 -.00000030  00000+0  00000+0 0  9999
2 58655  55.0830  88.3819 0005003 281.3844  78.5124  1.86231852  2507
